2023-003A               
1 55133U 23003A   24332.91233813  .00041271  00000+0  11629-2 0  9994
2 55133  97.2048  42.0253 0005937   8.0181 352.1158 15.36302186104710
EOS-7                   
1 55562U 23019A   24332.49064400  .00030685  00000+0  13245-3 0  9998
2 55562  37.1762 257.9963 0005526 259.0553 100.9599 15.83978359101787
HORUS 1                 
1 55690U 23025A   24332.95189436  .00017728  00000+0  74950-3 0  9998
2 55690  97.4082  46.2987 0002954 182.5413 177.5810 15.23278448 97848
HORUS 2                 
1 55844U 23032A   24332.91383871  .00017154  00000+0  73819-3 0  9998
2 55844  97.4139  46.6027 0008031 244.7412 115.2992 15.22660135 95275
GLOBAL-19               
1 55982U 23041B   24332.84660161  .00018878  00000+0  49867-3 0  9993
2 55982  42.0076 266.1417 0003791 281.5499  78.4915 15.38041514 94699
DEWASAT-2               
1 56180U 23054C   24332.82689548  .00100344  00000+0  85983-3 0  9995
2 56180  97.3470 236.0159 0002172  75.2044 284.9458 15.69103047 91604
KILICSAT                
1 56181U 23054D   24332.93901417  .00174971  00000+0  16306-2 0  9999
2 56181  97.3344 233.1362 0002603  51.6890 308.4605 15.66794685 91466
SSS-2B                  
1 56184U 23054G   24332.71265245  .00397095  00000+0  19399-2 0  9999
2 56184  97.3388 235.0336 0004422  91.0828 269.0947 15.81270066 91537
BRO-9                   
1 56185U 23054H   24332.95508119  .00026520  00000+0  71705-3 0  9998
2 56185  97.3427 227.2548 0004656 331.4626  28.6363 15.37687192 91080
ION SCV-010             
1 56192U 23054Q   24332.71812694  .00012233  00000+0  58854-3 0  9992
2 56192  97.4464 218.7513 0018463  30.1030 330.1261 15.18776715 89994
GHOST-1                 
1 56195U 23054T   24332.46687853  .00029532  00000+0  75569-3 0  9996
2 56195  97.3441 227.4591 0005413 313.9533  46.1266 15.39360199 91041
GHOST-2                 
1 56197U 23054V   24332.70352873  .00042250  00000+0  94599-3 0  9992
2 56197  97.3432 228.9127 0005235 311.5286  48.5512 15.43324116 91162
TOMORROW-R1             
1 56199U 23054X   24332.66899273  .00070668  00000+0  11139-2 0  9991
2 56199  97.3460 231.4228 0003973 302.0667  58.0200 15.53308099 91311
FACSAT-2                
1 56205U 23054AD  24332.92175037  .00041760  00000+0  82587-3 0  9990
2 56205  97.3482 231.2596 0006167 291.3770  68.6821 15.46977809 91311
CONNECTA T2.1           
1 56210U 23054AJ  24332.88076799  .00042368  00000+0  86985-3 0  9997
2 56210  97.3404 229.9513 0005547 288.7971  71.2676 15.45885693 91268
DISCO-1                 
1 56222U 23054AW  24331.65813972  .00186557  00000+0  16542-2 0  9996
2 56222  97.3355 232.1316 0001208  36.1866 323.9477 15.67995298 91286
REVELA                  
1 56224U 23054AY  24331.24788407  .00305633  00000+0  17943-2 0  9991
2 56224  97.3356 233.7231 0003863  98.6099 261.5605 15.77415669 91349
TELEOS-2                
1 56310U 23057C   24322.75504147  .00015809  00000+0  12856-2 0  9994
2 56310   9.9894  81.2828 0000733 323.3625  36.6538 14.96704825 86317
SNIPE 4                 
1 56744U 23072B   24332.91772342  .00022576  00000+0  10498-2 0  9994
2 56744  97.5423 158.7999 0010130 176.4474 183.6835 15.19929969 83481
SNIPE 2                 
1 56745U 23072C   24332.89800427  .00026208  00000+0  12045-2 0  9994
2 56745  97.5593 159.5199 0006400 193.6665 166.4398 15.20330051 83493
2023-072G               
1 56749U 23072G   24332.89046569  .00026181  00000+0  11266-2 0  9991
2 56749  97.5226 158.5159 0006563 200.5687 159.5286 15.22582572 83552
OTTER PUP               
1 56933U 23084B   24332.90974868  .00035178  00000+0  11138-2 0  9997
2 56933  97.5511  93.8393 0006101 132.4724 227.7034 15.32649950 81156
GEISAT PRECURSOR        
1 56934U 23084C   24332.89308664  .00012704  00000+0  53139-3 0  9999
2 56934  97.5578  91.4535 0007910 174.2099 185.9230 15.23696508 80973
EIVE                    
1 56937U 23084F   24332.92235297  .00090735  00000+0  18953-2 0  9991
2 56937  97.5469  95.6997 0004009 181.2930 178.8309 15.45170903 81273
LAYAN-23                
1 56939U 23084H   24332.86703273  .00100005  00000+0  19147-2 0  9998
2 56939  97.5448  96.5501 0004044 171.8815 188.2500 15.47676808 81320
AFRL-XVI                
1 56942U 23084L   24331.32429409  .00078173  00000+0  19134-2 0  9994
2 56942  97.5528  94.5781 0004618 170.2103 189.9234 15.40475544 81049
BLACKJACK ACES-3        
1 56950U 23084U   24332.75077510  .00024357  00000+0  97881-3 0  9994
2 56950  97.5578  93.0099 0008971 149.4519 210.7243 15.24893947 81062
BLACKJACK ACES-4        
1 56952U 23084W   24331.34049280  .00047162  00000+0  14257-2 0  9997
2 56952  97.5557  92.5129 0008854 158.1093 202.0530 15.34036167 80913
BLACKJACK ACES-2        
1 56955U 23084Z   24332.59955175  .00031817  00000+0  12703-2 0  9991
2 56955  97.5567  92.8451 0009444 156.3283 203.8390 15.25050577 81044
BLACKJACK ACES-1        
1 56956U 23084AA  24332.77591006  .00030885  00000+0  12400-2 0  9999
2 56956  97.5536  92.9946 0009576 157.4810 202.6849 15.24868221 30799
ION SCV-011             
1 56957U 23084AB  24332.91017605  .00013705  00000+0  64711-3 0  9999
2 56957  98.0848 102.0652 0008605 191.6115 168.4921 15.19541443 79521
GHOST-3                 
1 56958U 23084AC  24332.57562870  .00023141  00000+0  88774-3 0  9991
2 56958  97.5578  92.0209 0010319 159.3455 200.8202 15.26443907 80984
TOMORROW-R2             
1 56962U 23084AG  24332.80095722  .00033141  00000+0  11029-2 0  9998
2 56962  97.5551  93.4769 0010064 152.8491 207.3278 15.31029608 81105
AFR-1                   
1 56964U 23084AJ  24332.88506084  .00011814  00000+0  54044-3 0  9994
2 56964  97.5613  90.8149 0012804 161.1420 199.0292 15.20613673 80929
DROID.001               
1 56965U 23084AK  24332.58106712  .00038921  00000+0  12407-2 0  9990
2 56965  97.5531  93.4984 0009054 151.3481 208.8260 15.32388091 81095
MUSAT1                  
1 56967U 23084AM  24332.82329778  .00788629  00000+0  26779-2 0  9992
2 56967  97.5306 102.0194 0005264 296.2517  63.8213 15.88019606 81681
AII-DELTA               
1 56987U 23084BH  24332.87557891  .00207661  00000+0  23433-2 0  9994
2 56987  97.5334  99.4616 0002818 153.7481 206.3920 15.61813705 81537
SPEI SATELLES           
1 56991U 23084BT  24332.65201212  .00101069  00000+0  19218-2 0  9999
2 56991  97.5451  96.8542 0004347 134.2984 225.8623 15.47870470 81332
URESAT-1                
1 56992U 23084BU  24332.82205497  .00163888  00000+0  24120-2 0  9993
2 56992  97.5372  96.5197 0005908 181.1171 179.0070 15.54848816 81334
MRC-100                 
1 56993U 23084BV  24332.29616338  .00289659  00000+0  26411-2 0  9995
2 56993  97.5344  97.5555 0004398 219.7297 140.3641 15.66979993 81364
METEOR-M2 3             
1 57166U 23091A   24332.91066294  .00000123  00000+0  72740-4 0  9990
2 57166  98.6921  25.9426 0004351  29.8832 330.2595 14.23955101 73924
STRATOSAT-TK 1 (RS52S)  
1 57167U 23091B   24332.89569062  .00041030  00000+0  17428-2 0  9991
2 57167  97.5887  26.3753 0011532 273.2533  86.7384 15.22882652 78377
UMKA 1 (RS40S)          
1 57172U 23091G   24332.89588497  .00013404  00000+0  79552-3 0  9991
2 57172  97.5906  23.4784 0014392 283.1203  76.8420 15.11369723 78185
2023-091H               
1 57173U 23091H   24332.94236543  .00017866  00000+0  99801-3 0  9995
2 57173  97.5905  23.8734 0012349 292.4412  67.5510 15.13509184 78219
2023-091J               
1 57174U 23091J   24332.95008023  .00008241  00000+0  53446-3 0  9999
2 57174  97.5922  22.3789 0013613 297.1211  62.8629 15.08275536 78110
CUBEBEL 2 (EU11S)       
1 57175U 23091K   24332.91020177  .00017701  00000+0  99196-3 0  9993
2 57175  97.5903  23.7547 0012661 294.9634  65.0281 15.13392305 78202
SITRO-AIS 5 (KATYS)     
1 57176U 23091L   24332.88642714  .00018362  00000+0  10173-2 0  9998
2 57176  97.5913  24.0088 0014697 281.9565  78.0019 15.13770669 78215
ZORKIY-2M 1             
1 57177U 23091M   24332.94165349  .00011590  00000+0  68770-3 0  9993
2 57177  97.5932  23.6873 0015001 278.6840  81.2691 15.11407852 78191
CUBESX-HSE 3 (RS42S)    
1 57178U 23091N   24332.89223013  .00019478  00000+0  10594-2 0  9994
2 57178  97.5939  24.4936 0014272 274.7876  85.1726 15.14420861 78238
MONITOR-3 (RS58S)       
1 57180U 23091Q   24332.88477673  .00017631  00000+0  98466-3 0  9993
2 57180  97.5936  24.1539 0014626 276.0522  83.9042 15.13494458 78217
MONITOR-4 (RS57S)       
1 57182U 23091S   24332.95104461  .00017461  00000+0  97506-3 0  9990
2 57182  97.5930  24.1831 0014656 276.4216  83.5346 15.13498931 78229
MONITOR-2 (RS39S)       
1 57184U 23091U   24332.93907877  .00010785  00000+0  64880-3 0  9993
2 57184  97.5938  23.9314 0011765 271.5425  88.4457 15.10963046 78204
SVYATOBOR 1 (RS60S)     
1 57187U 23091X   24332.93146824  .00015321  00000+0  84898-3 0  9995
2 57187  97.5936  24.8697 0011049 266.1058  93.8910 15.13844054 78266
HORS 1                  
1 57188U 23091Y   24332.92845155  .00015370  00000+0  85199-3 0  9997
2 57188  97.5915  24.7478 0010487 266.7601  93.2430 15.13837412 78266
VIZARD-METEO (RS38S)    
1 57189U 23091Z   24332.94532650  .00020532  00000+0  10544-2 0  9990
2 57189  97.5927  25.7204 0009820 261.3889  98.6231 15.16490256 78325
NANOZOND 1 (RS49S)      
1 57190U 23091AA  24332.93274363  .00034451  00000+0  14946-2 0  9990
2 57190  97.5893  27.0948 0008078 262.9398  97.0919 15.22236394 78420
SITRO-AIS 6 (CHIRKIN)   
1 57192U 23091AC  24332.93314700  .00017811  00000+0  98658-3 0  9996
2 57192  97.5910  24.0863 0014432 281.3308  78.6302 15.13788082 78227
SITRO-AIS 8 (ANOKHIN)   
1 57193U 23091AD  24332.91402858  .00020199  00000+0  10950-2 0  9998
2 57193  97.5905  24.2537 0014266 282.0078  77.9554 15.14530465 78232
SITRO-AIS 7 (FARTUSHNIY)
1 57194U 23091AE  24332.94507374  .00018250  00000+0  10135-2 0  9991
2 57194  97.5911  24.0617 0014351 282.2461  77.7163 15.13691235 78225
